1 33492U 09002A   21336.57265301  .00000207  00000-0  45034-4 0  9995
2 33492  98.1023  86.3404 0001286 108.1433 251.9912 14.67531079688800
1 33492U 09002A   21336.91356546  .00000168  00000-0  38069-4 0  9991
2 33492  98.1023  86.6776 0001278 107.7971 252.3373 14.67531139688395
1 33492U 09002A   21337.32266039  .00000180  00000-0  40323-4 0  9994
2 33492  98.1023  87.0822 0001296 108.1471 251.9874 14.67531377688454
1 33492U 09002A   21338.07266748  .00000208  00000-0  45176-4 0  9996
2 33492  98.1023  87.8240 0001307 107.9868 252.1479 14.67531865689026
1 33492U 09002A   21338.27721488  .00000204  00000-0  44409-4 0  9999
2 33492  98.1023  88.0263 0001310 107.9598 252.1749 14.67531951688595
1 33492U 09002A   21338.89085696  .00000177  00000-0  39688-4 0  9993
2 33492  98.1023  88.6333 0001318 107.8084 252.3264 14.67532087688681
1 33492U 09002A   21339.16358672  .00000175  00000-0  39352-4 0  9997
2 33492  98.1023  88.9030 0001320 107.9736 252.1613 14.67532201689186
1 33492U 09002A   21339.29995158  .00000187  00000-0  41570-4 0  9995
2 33492  98.1023  89.0379 0001323 107.9687 252.1662 14.67532356688748
1 33492U 09002A   21339.91359337  .00000182  00000-0  40525-4 0  9991
2 33492  98.1023  89.6448 0001336 107.8721 252.2629 14.67532650688834
1 33492U 09002A   21340.18632303  .00000180  00000-0  40275-4 0  9999
2 33492  98.1023  89.9146 0001342 107.9112 252.2239 14.67532776689336
1 33492U 09002A   21340.59541818  .00000169  00000-0  38410-4 0  9999
2 33492  98.1033  90.3212 0002356 113.7640 246.3811 14.67529631688935
1 33492U 09002A   21341.34542630  .00000168  00000-0  38124-4 0  9997
2 33492  98.1026  91.0611 0001348 106.7529 253.3824 14.67530450689042
1 33492U 09002A   21341.34542630  .00000168  00000-0  38124-4 0  9997
2 33492  98.1026  91.0611 0001348 106.7529 253.3824 14.67530450689503
1 33492U 09002A   21342.57271148  .00000150  00000-0  34936-4 0  9994
2 33492  98.1025  92.2751 0001374 107.1166 253.0189 14.67530894689683
1 33492U 09002A   21342.91362399  .00000136  00000-0  32576-4 0  9993
2 33492  98.1023  92.6121 0001362 107.0014 253.1340 14.67530981689276
1 33492U 09002A   21343.59544886  .00000147  00000-0  34443-4 0  9998
2 33492  98.1024  93.2866 0001384 106.7018 253.4338 14.67531301689372
1 33492U 09002A   21344.55000348  .00000142  00000-0  33491-4 0  9992
2 33492  98.1024  94.2308 0001401 106.6266 253.5093 14.67531670689512
1 33492U 09002A   21344.75455087  .00000142  00000-0  33608-4 0  9998
2 33492  98.1024  94.4331 0001404 106.6032 253.5326 14.67531768689544
1 33492U 09002A   21344.75455087  .00000142  00000-0  33608-4 0  9998
2 33492  98.1024  94.4331 0001404 106.6032 253.5326 14.67531768690007
1 33492U 09002A   21345.57274034  .00000128  00000-0  31015-4 0  9994
2 33492  98.1024  95.2424 0001418 106.4137 253.7223 14.67532006689662
1 33492U 09002A   21345.84547013  .00000108  00000-0  27499-4 0  9993
2 33492  98.1024  95.5121 0001429 106.4109 253.7253 14.67532028689702
1 33492U 09002A   21346.05001747  .00000104  00000-0  26846-4 0  9997
2 33492  98.1024  95.7145 0001430 106.3676 253.7686 14.67532065689734
1 33492U 09002A   21346.05001747  .00000104  00000-0  26846-4 0  9997
2 33492  98.1024  95.7145 0001430 106.3676 253.7686 14.67532065690196
1 33492U 09002A   21346.86820676  .00000103  00000-0  26597-4 0  9998
2 33492  98.1025  96.5238 0001453 106.0442 254.0923 14.67532367689856
1 33492U 09002A   21347.07275405  .00000102  00000-0  26475-4 0  9990
2 33492  98.1025  96.7261 0001453 106.0487 254.0877 14.67532410690346
1 33492U 09002A   21347.55003099  .00000121  00000-0  29844-4 0  9995
2 33492  98.1025  97.1982 0001458 105.8181 254.3185 14.67532682689955
1 33492U 09002A   21347.89094313  .00000107  00000-0  27426-4 0  9999
2 33492  98.1026  97.5355 0001464 105.6353 254.5013 14.67532709690000
1 33492U 09002A   21348.30003758  .00000117  00000-0  29103-4 0  9994
2 33492  98.1026  97.9401 0001464 105.5984 254.5382 14.67532901690525
1 33492U 09002A   21348.57276720  .00000121  00000-0  29826-4 0  9991
2 33492  98.1026  98.2099 0001471 105.5145 254.6222 14.67533013690102
1 33492U 09002A   21348.91367923  .00000106  00000-0  27189-4 0  9998
2 33492  98.1025  98.5470 0001473 105.3546 254.7821 14.67533057690151
1 33492U 09002A   21349.32277378  .00000102  00000-0  26467-4 0  9992
2 33492  98.1026  98.9517 0001505 105.4819 254.6552 14.67533138690215
1 33492U 09002A   21349.32277378  .00000102  00000-0  26467-4 0  9992
2 33492  98.1026  98.9517 0001505 105.4819 254.6552 14.67533138690675
